{"fetched_at":"2026-03-29T16:36:15Z","count":15609,"tles":[{"name":"STARLINK-30492","line1":"1 57921U 23147J   26087.76446779  .00000387  00000+0  23603-4 0  9999","line2":"2 57921  43.0037 217.6156 0001433 257.5665 102.5026 15.27576835139512","category":"Starlink"}]}